CAPELLA-11 (ACADIA-1)   
1 57693U 23126A   26194.10121633  .00002203  00000+0  28325-3 0  9992
2 57693  53.0082  72.3940 0002119 123.6112 236.5070 14.84908624155970
CAPELLA-14 (ACADIA-4)   
1 59444U 24066C   26194.24823292  .00006954  00000+0  45541-3 0  9993
2 59444  45.6044 118.0658 0000749  18.4375 341.6537 15.08425491116420
CAPELLA-13 (ACADIA-3)   
1 60419U 24142A   26195.71115507  .00002272  00000+0  27292-3 0  9990
2 60419  53.0055 297.4262 0001327  88.9137 271.1995 14.87659816104500
CAPELLA-15 (ACADIA-5)   
1 60544U 24149CE  26195.74503734  .00002282  00000+0  22825-3 0  9990
2 60544  97.6766 267.9581 0003350 340.0098  20.0990 14.92404933103963
CAPELLA-17 (ACADIA-7)   
1 64583U 25135BH  26196.17956514  .00003099  00000+0  31422-3 0  9999
2 64583  97.7709 309.3887 0004139 249.7223 110.3551 14.91619528 58028
CAPELLA-16 (ACADIA-6)   
1 65318U 25188D   26196.15418904  .00003727  00000+0  35438-3 0  9997
2 65318  97.7379 270.8872 0005749 134.9353 225.2334 14.94049259 48093
CAPELLA-19 (ACADIA-9)   
1 67384U 26004X   26195.99668260  .00002720  00000+0  31238-3 0  9999
2 67384  97.7989 193.8677 0001928  91.7861 268.3575 14.86643255 27405
CAPELLA-18 (ACADIA-8)   
1 67385U 26004Y   26196.00672390  .00002792  00000+0  32046-3 0  9999
2 67385  97.8011 194.0311 0001496  93.7848 266.3539 14.86652062 27413
CAPELLA-20 (ACADIA-10)  
1 68485U 26067BX  26195.86313344  .00002640  00000+0  26809-3 0  9996
2 68485  97.7587 153.7182 0001004 147.0234 213.1048 14.91681608 15851
